format  = 'OEF2.0'       ! file format
rectype = 'ML'           ! record type (1L/ML)
refsys  = ECLM J2000     ! default reference system
END_OF_HEADER
2009BD
! Equinoctial elements: a, e*sin(LP), e*cos(LP), tan(i/2)*sin(LN), tan(i/2)*cos(LN), mean long.
 EQU   1.00721048181618E+00   0.006322346022174  -0.040167165658299    0.002870278413355    0.001754940932398  42.4208474558534
 MJD     55137.563158689 TDT
 MAG  28.236  0.150
! Non-grav parameters: model used, actual number in use, dimension, list of solve for parameters to be currently determined
 LSP   1  2    8    1  2
! Vector of dynamical parameters.
 NGR   2.42112171779443E-01 -1.15486027100508E-02
! RMS    4.25968E-08   2.73116E-08   1.95707E-08   4.33284E-09   1.75079E-09   2.57091E-06   4.15754E-02   1.36685E-03
! EIG   1.76843E-10   7.35807E-10   9.02815E-10   2.83667E-09   3.89633E-09   1.80731E-08   9.88447E-04   4.15861E-02
! WEA   0.00000   0.00000   0.00000   0.00000   0.00000   0.00000  -0.99974  -0.02271
 COV   1.814483821925787E-15  1.036198281893396E-15  6.022398136862778E-16
 COV  -4.205437101962234E-17  1.758509488171383E-17 -7.723308288818258E-15
 COV  -1.704609603768708E-09 -2.830140669760425E-11  7.459213870187663E-16
 COV   4.749177796728937E-16 -5.083394053553710E-17  1.649453531585936E-17
 COV   2.489518064990042E-14 -1.100322925246350E-09 -3.051397644453250E-11
 COV   3.830125105179286E-16 -1.701264500558056E-17  1.275549886459760E-17
 COV   3.053326881523265E-14 -7.134575877247074E-10 -2.289427798324600E-11
 COV   1.877352748978161E-17 -4.969591341290924E-18 -2.184929762868139E-15
 COV   4.988802002593795E-11  2.678845750517568E-12  3.065266817696791E-18
 COV   1.063963438977389E-15 -2.208170863285580E-11 -8.894641016397073E-13
 COV   6.609582210607901E-12 -2.151128787495967E-08 -2.808693950805992E-09
 COV   1.728514831012966E-03  3.923847460072307E-05  1.868272414777705E-06
 NOR   1.918285018954290E+18  1.078927006162703E+18  3.384864886241335E+18
 NOR  -4.123461753697281E+17 -2.420848132868531E+18 -1.038234800128417E+16
 NOR   4.191750940537748E+12 -1.604736061831643E+13  2.870884673313779E+18
 NOR   6.843191455634317E+18  1.766733507589514E+17 -4.359412285736472E+18
 NOR  -3.616531954164365E+16  6.026541981108837E+12 -3.617955430985797E+13
 NOR   1.818271482624203E+19 -4.173104586234541E+17 -1.260726365782395E+19
 NOR  -9.319174730106474E+16  1.611975713168392E+13 -9.820196774724916E+13
 NOR   5.910943403050435E+17  9.576586212897199E+17 -1.590647543591148E+14
 NOR  -5.094006620042900E+11  1.593290739285307E+12  9.981117809157302E+18
 NOR   6.364275390502800E+16 -1.102209852919241E+13  6.818340098004804E+13
 NOR   5.175597460396638E+14 -7.629630688123703E+10  5.210755907016379E+11
 NOR   1.547105052023563E+07 -8.468580032293893E+07  5.553011907272948E+08
!MOID  0.00396    0
!NODES  0.03364 -0.01989
